{"type":"FeatureCollection","source":"codeforgermany/click_that_hood · public/data/caribbean-islands.geojson","license_note":"Geometry subset derived from the Click That 'Hood Caribbean Islands GeoJSON dataset; repository software/data package distributed under the MIT License.","features":[{"type":"Feature","properties":{"name":"British Virgin Islands"},"geometry":{"type":"MultiPolygon","coordinates":[[[[-64.660843,18.383888],[-64.667236,18.383888],[-64.699173,18.391388],[-64.700287,18.395554],[-64.697235,18.400276],[-64.668335,18.428333],[-64.652512,18.441109],[-64.640289,18.445],[-64.611679,18.452499],[-64.575012,18.458054],[-64.56778,18.457222],[-64.562225,18.455276],[-64.558334,18.451942],[-64.556946,18.446941],[-64.556946,18.440552],[-64.561951,18.425831],[-64.563614,18.421387],[-64.567505,18.418331],[-64.57695,18.413887],[-64.660843,18.383888]]],[[[-64.422501,18.43861],[-64.436401,18.431389],[-64.43779,18.434998],[-64.438614,18.440552],[-64.438339,18.453053],[-64.415558,18.503609],[-64.412231,18.506107],[-64.325562,18.509998],[-64.322235,18.506107],[-64.323624,18.501663],[-64.326675,18.496944],[-64.330566,18.494164],[-64.422501,18.43861]]],[[[-64.311401,18.746109],[-64.305008,18.738609],[-64.292511,18.729164],[-64.278336,18.721107],[-64.271957,18.713333],[-64.26973,18.708885],[-64.26918,18.703331],[-64.270004,18.696388],[-64.275284,18.695],[-64.278061,18.691944],[-64.283066,18.693333],[-64.295288,18.703331],[-64.302505,18.710552],[-64.315842,18.719166],[-64.335007,18.72361],[-64.367233,18.72361],[-64.388062,18.725555],[-64.400284,18.729164],[-64.408066,18.735832],[-64.407227,18.741943],[-64.401398,18.741108],[-64.396118,18.742496],[-64.384171,18.743889],[-64.357224,18.742496],[-64.351395,18.743053],[-64.329727,18.748608],[-64.316956,18.748333],[-64.311401,18.746109]]]]}},{"type":"Feature","properties":{"name":"Montserrat"},"geometry":{"type":"MultiPolygon","coordinates":[[[[-62.171394,16.671387],[-62.190002,16.672497],[-62.208618,16.683609],[-62.212502,16.686943],[-62.229729,16.70472],[-62.236671,16.711941],[-62.237228,16.717499],[-62.23584,16.730553],[-62.20723,16.811108],[-62.20195,16.81361],[-62.176392,16.808609],[-62.148056,16.751663],[-62.146393,16.746666],[-62.137505,16.692776],[-62.140282,16.688332],[-62.15139,16.678055],[-62.155556,16.675278],[-62.165558,16.671665],[-62.171394,16.671387]]]]}},{"type":"Feature","properties":{"name":"Anguilla"},"geometry":{"type":"MultiPolygon","coordinates":[[[[-63.167778,18.164444],[-63.158615,18.175831],[-63.155281,18.179443],[-63.141396,18.194164],[-63.057503,18.256386],[-63.053337,18.259163],[-63.048615,18.261387],[-63.022507,18.268887],[-62.978889,18.276665],[-62.972504,18.276665],[-62.970001,18.272221],[-62.969452,18.266388],[-62.986671,18.235554],[-62.993057,18.227219],[-63.021118,18.214443],[-63.030838,18.210278],[-63.074173,18.192776],[-63.140007,18.168331],[-63.150841,18.165554],[-63.15667,18.164997],[-63.167778,18.164444]]]]}},{"type":"Feature","properties":{"name":"Dominica"},"geometry":{"type":"MultiPolygon","coordinates":[[[[-61.363617,15.198055],[-61.37056,15.199165],[-61.374168,15.202499],[-61.375839,15.207499],[-61.377502,15.236387],[-61.377785,15.248055],[-61.374451,15.268332],[-61.374168,15.274443],[-61.391396,15.349722],[-61.392784,15.354721],[-61.395004,15.359444],[-61.422783,15.4175],[-61.450562,15.455555],[-61.462502,15.471109],[-61.474724,15.486387],[-61.476395,15.491388],[-61.491394,15.540554],[-61.482506,15.587776],[-61.474724,15.61861],[-61.468056,15.628054],[-61.452225,15.631943],[-61.433617,15.631666],[-61.427223,15.630278],[-61.31778,15.581944],[-61.304169,15.57361],[-61.267227,15.516666],[-61.253334,15.461388],[-61.250557,15.329166],[-61.250839,15.323055],[-61.254448,15.291666],[-61.25528,15.285],[-61.25695,15.278889],[-61.265007,15.258055],[-61.270004,15.248333],[-61.280281,15.237499],[-61.363617,15.198055]]]]}},{"type":"Feature","properties":{"name":"Saint Barthelemy"},"geometry":{"type":"MultiPolygon","coordinates":[[[[-63.028336,18.015553],[-63.03334,18.015553],[-63.072784,18.024998],[-63.07917,18.026665],[-63.116112,18.042774],[-63.139839,18.058601],[-63.109867,18.066116],[-63.030273,18.070366],[-63.011459,18.067276],[-63.010284,18.047775],[-63.012222,18.035553],[-63.01667,18.024998],[-63.019447,18.020554],[-63.028336,18.015553]]]]}},{"type":"Feature","properties":{"name":"Saint Martin"},"geometry":{"type":"MultiPolygon","coordinates":[[[[-63.006668,18.080555],[-63.011459,18.067276],[-63.030273,18.070366],[-63.109867,18.066116],[-63.139839,18.058601],[-63.14389,18.061943],[-63.146118,18.066387],[-63.146667,18.071941],[-63.142227,18.074165],[-63.045006,18.121387],[-63.039169,18.121944],[-63.019173,18.117775],[-63.016113,18.113888],[-63.006393,18.086941],[-63.006668,18.080555]]]]}},{"type":"Feature","properties":{"name":"Antigua and Barbuda"},"geometry":{"type":"MultiPolygon","coordinates":[[[[-61.686668,17.024441],[-61.73806,16.989719],[-61.82917,16.996944],[-61.876114,17.016941],[-61.880562,17.019722],[-61.883614,17.023609],[-61.885834,17.028053],[-61.887222,17.033054],[-61.891113,17.094166],[-61.887222,17.105274],[-61.884171,17.109722],[-61.832779,17.163887],[-61.826393,17.167221],[-61.794449,17.16333],[-61.784172,17.158333],[-61.744171,17.137218],[-61.674171,17.093609],[-61.67028,17.090275],[-61.668892,17.084999],[-61.666389,17.04583],[-61.667503,17.040554],[-61.682503,17.027496],[-61.686668,17.024441]]],[[[-61.729172,17.608608],[-61.731117,17.547222],[-61.73278,17.541111],[-61.738892,17.540554],[-61.751945,17.549442],[-61.815559,17.583885],[-61.834724,17.588608],[-61.839447,17.586666],[-61.842781,17.582775],[-61.847504,17.58083],[-61.853058,17.583054],[-61.856674,17.592499],[-61.873894,17.688889],[-61.875282,17.698608],[-61.873062,17.703888],[-61.850281,17.722775],[-61.845558,17.724998],[-61.839172,17.72472],[-61.787224,17.700554],[-61.783615,17.69722],[-61.74334,17.653053],[-61.74028,17.649166],[-61.73806,17.644722],[-61.731674,17.624996],[-61.729172,17.608608]]]]}},{"type":"Feature","properties":{"name":"United States Virgin Islands"},"geometry":{"type":"MultiPolygon","coordinates":[[[[-64.761948,17.774166],[-64.758621,17.771664],[-64.753342,17.773052],[-64.741394,17.774166],[-64.73584,17.772221],[-64.729736,17.764442],[-64.721954,17.758053],[-64.709167,17.754997],[-64.696671,17.745552],[-64.689728,17.74472],[-64.687225,17.75],[-64.683899,17.753887],[-64.674454,17.758053],[-64.663071,17.767776],[-64.657791,17.769165],[-64.638062,17.765274],[-64.610001,17.762218],[-64.590286,17.761944],[-64.576675,17.76083],[-64.570282,17.759441],[-64.565002,17.757221],[-64.560837,17.753887],[-64.560287,17.748333],[-64.564178,17.745277],[-64.578064,17.746387],[-64.590561,17.749443],[-64.59584,17.749443],[-64.600571,17.747219],[-64.61084,17.736111],[-64.618896,17.730274],[-64.628067,17.72583],[-64.64418,17.721664],[-64.668335,17.710831],[-64.691956,17.708332],[-64.714172,17.704166],[-64.726395,17.705276],[-64.738892,17.708054],[-64.744446,17.706665],[-64.757782,17.699444],[-64.763062,17.698055],[-64.776947,17.699165],[-64.78862,17.697777],[-64.804459,17.693607],[-64.815567,17.691666],[-64.823059,17.684719],[-64.828339,17.683331],[-64.833618,17.683331],[-64.843063,17.688889],[-64.852234,17.684444],[-64.858612,17.685833],[-64.862503,17.689163],[-64.868057,17.68972],[-64.872223,17.686943],[-64.877502,17.685555],[-64.896118,17.676666],[-64.895844,17.679443],[-64.891953,17.682499],[-64.888901,17.686943],[-64.881958,17.710278],[-64.880005,17.723888],[-64.883057,17.733887],[-64.890839,17.746666],[-64.891678,17.752499],[-64.890015,17.758331],[-64.886398,17.762218],[-64.882507,17.764999],[-64.87973,17.769722],[-64.870834,17.774719],[-64.864456,17.774441],[-64.861954,17.770832],[-64.844452,17.761665],[-64.838058,17.760277],[-64.831955,17.76083],[-64.82695,17.762218],[-64.818619,17.768055],[-64.815567,17.771942],[-64.811401,17.774719],[-64.796951,17.788887],[-64.786957,17.7925],[-64.773346,17.789997],[-64.769455,17.786942],[-64.766403,17.783054],[-64.761948,17.774166]]],[[[-64.665283,18.332222],[-64.704453,18.307499],[-64.76918,18.31583],[-64.774734,18.317776],[-64.788071,18.326385],[-64.790283,18.33083],[-64.790009,18.336941],[-64.781952,18.343052],[-64.744171,18.36861],[-64.739182,18.370831],[-64.731949,18.371944],[-64.708618,18.370552],[-64.668335,18.35083],[-64.664459,18.3475],[-64.65834,18.339722],[-64.661118,18.335278],[-64.665283,18.332222]]],[[[-64.841675,18.312496],[-64.878067,18.310555],[-64.886398,18.316666],[-64.923065,18.336388],[-64.928619,18.338608],[-64.979446,18.346943],[-65.011948,18.349163],[-65.018341,18.350555],[-65.026123,18.356941],[-65.026947,18.362778],[-65.02417,18.367222],[-64.976669,18.377777],[-64.950012,18.375275],[-64.9039,18.364719],[-64.846954,18.338608],[-64.834457,18.328888],[-64.831955,18.324444],[-64.833069,18.317497],[-64.835846,18.313053],[-64.841675,18.312496]]]]}},{"type":"Feature","properties":{"name":"Puerto Rico"},"geometry":{"type":"MultiPolygon","coordinates":[[[[-67.880569,18.048332],[-67.886398,18.047497],[-67.892227,18.048054],[-67.930557,18.074997],[-67.936951,18.081387],[-67.938339,18.090275],[-67.930847,18.109722],[-67.926682,18.112778],[-67.903336,18.114441],[-67.862793,18.114166],[-67.84668,18.107498],[-67.840286,18.093887],[-67.841675,18.087776],[-67.871399,18.052776],[-67.880569,18.048332]]],[[[-65.441391,18.090275],[-65.525009,18.083054],[-65.545563,18.084999],[-65.551392,18.086941],[-65.565567,18.094997],[-65.573334,18.101387],[-65.578903,18.109722],[-65.580292,18.114719],[-65.578339,18.11861],[-65.502792,18.144165],[-65.486954,18.149166],[-65.434448,18.164165],[-65.428345,18.164997],[-65.395844,18.164444],[-65.301117,18.147778],[-65.305283,18.1325],[-65.337784,18.116943],[-65.441391,18.090275]]],[[[-65.242783,18.302219],[-65.275284,18.276943],[-65.279175,18.278889],[-65.333618,18.331944],[-65.33667,18.335831],[-65.338898,18.346664],[-65.335007,18.348053],[-65.284729,18.331665],[-65.273346,18.327499],[-65.262512,18.32333],[-65.248062,18.315277],[-65.244171,18.311943],[-65.241959,18.307499],[-65.242783,18.302219]]],[[[-66.996674,18.504997],[-66.768829,18.487677],[-66.695557,18.489441],[-66.550568,18.482498],[-66.466675,18.474163],[-66.305557,18.46722],[-66.208344,18.464165],[-66.195,18.463892],[-66.136398,18.465553],[-66.102783,18.416386],[-66.116959,18.469444],[-66.116959,18.474163],[-66.111115,18.474998],[-66.031113,18.445274],[-66.014175,18.456387],[-66.004181,18.460278],[-65.99086,18.460089],[-65.904175,18.454441],[-65.890564,18.452221],[-65.801392,18.430553],[-65.643066,18.375275],[-65.626953,18.364998],[-65.630005,18.275276],[-65.632217,18.26543],[-65.602509,18.236664],[-65.603058,18.232498],[-65.613342,18.221386],[-65.69278,18.193607],[-65.823898,18.063889],[-65.83667,18.055832],[-65.840286,18.044441],[-65.856949,18.018608],[-65.884735,17.989441],[-65.888901,17.986385],[-65.898056,17.981941],[-65.927505,17.970276],[-65.937225,17.966663],[-66.204453,17.922222],[-66.237793,17.928055],[-66.290558,17.943333],[-66.347778,17.967499],[-66.375565,17.960831],[-66.454178,17.982498],[-66.571396,17.965553],[-66.575836,17.963333],[-66.587234,17.961109],[-66.671112,17.964722],[-66.684448,17.966942],[-66.714737,17.981388],[-66.789169,17.970554],[-66.80751,17.960278],[-66.821671,17.953609],[-66.841949,17.946941],[-66.927231,17.928886],[-66.939728,17.928055],[-66.953339,17.930275],[-67.067505,17.959721],[-67.096115,17.949997],[-67.182236,17.932499],[-67.187225,17.932499],[-67.203903,17.949444],[-67.205566,17.954441],[-67.205566,17.960831],[-67.194168,18.035],[-67.175293,18.10611],[-67.156403,18.188332],[-67.157501,18.214722],[-67.169052,18.23761],[-67.170563,18.242775],[-67.174454,18.251942],[-67.189728,18.278053],[-67.193619,18.281109],[-67.199173,18.283054],[-67.211121,18.286663],[-67.218613,18.28722],[-67.224731,18.288887],[-67.229446,18.291386],[-67.240845,18.301666],[-67.25029,18.313053],[-67.261948,18.341389],[-67.266678,18.362778],[-67.266113,18.368053],[-67.172226,18.484997],[-67.168625,18.488888],[-67.154449,18.503052],[-67.146393,18.509163],[-67.141953,18.511387],[-67.139977,18.511629],[-67.101669,18.518055],[-67.083344,18.519444],[-67.063614,18.519165],[-67.039734,18.515831],[-67.026123,18.513611],[-66.996674,18.504997]]]]}},{"type":"Feature","properties":{"name":"Saint Kitts and Nevis"},"geometry":{"type":"MultiPolygon","coordinates":[[[[-62.55278,17.094166],[-62.585007,17.091663],[-62.591393,17.091942],[-62.610558,17.095276],[-62.617226,17.102497],[-62.621948,17.111385],[-62.625282,17.120831],[-62.626114,17.126663],[-62.625557,17.139164],[-62.623611,17.151108],[-62.620285,17.16333],[-62.610001,17.191109],[-62.599724,17.19722],[-62.582779,17.199718],[-62.576118,17.199444],[-62.548615,17.189999],[-62.544724,17.186665],[-62.542503,17.18222],[-62.541389,17.176941],[-62.535278,17.144997],[-62.534172,17.13361],[-62.535278,17.120831],[-62.538612,17.108608],[-62.544449,17.09972],[-62.547783,17.096107],[-62.55278,17.094166]]],[[[-62.701668,17.336941],[-62.622505,17.241943],[-62.62056,17.231388],[-62.621674,17.224442],[-62.625282,17.220833],[-62.653893,17.208885],[-62.662224,17.239166],[-62.671112,17.257221],[-62.677223,17.264999],[-62.692505,17.278332],[-62.707504,17.285831],[-62.71389,17.28611],[-62.725006,17.284164],[-62.73806,17.284721],[-62.759445,17.287498],[-62.778336,17.292221],[-62.793335,17.299999],[-62.835281,17.324444],[-62.839172,17.327774],[-62.861671,17.366386],[-62.863892,17.370831],[-62.856392,17.38583],[-62.849449,17.393055],[-62.838615,17.401943],[-62.817505,17.410831],[-62.812782,17.409443],[-62.734726,17.368053],[-62.730003,17.365276],[-62.701668,17.336941]]]]}},{"type":"Feature","properties":{"name":"Guadeloupe"},"geometry":{"type":"MultiPolygon","coordinates":[[[[-61.24556,15.871666],[-61.256668,15.869999],[-61.275841,15.870832],[-61.283058,15.871944],[-61.305557,15.879999],[-61.310005,15.882776],[-61.316948,15.889999],[-61.329445,15.92861],[-61.329727,15.934444],[-61.309174,15.972776],[-61.275284,16.009163],[-61.266945,16.014999],[-61.261391,16.012775],[-61.23806,15.993332],[-61.202225,15.952499],[-61.196114,15.944721],[-61.186951,15.92111],[-61.186394,15.915554],[-61.1875,15.91],[-61.19445,15.902777],[-61.222778,15.882776],[-61.230835,15.877222],[-61.24556,15.871666]]],[[[-61.037224,16.311108],[-61.081673,16.295555],[-61.08667,16.29583],[-61.087784,16.300831],[-61.085838,16.304722],[-61.08223,16.308331],[-61.059448,16.325554],[-61.047226,16.334164],[-61.025284,16.346664],[-61.020836,16.348888],[-61.015282,16.350277],[-61.001945,16.348888],[-60.988617,16.346107],[-60.990837,16.340832],[-60.998894,16.335278],[-61.037224,16.311108]]],[[[-61.346115,16.334164],[-61.339447,16.333054],[-61.333618,16.333611],[-61.291672,16.326664],[-61.279167,16.32333],[-61.268616,16.318886],[-61.260002,16.312775],[-61.205559,16.26722],[-61.225838,16.253052],[-61.454727,16.200554],[-61.466949,16.200275],[-61.474167,16.201385],[-61.498337,16.208332],[-61.509171,16.212776],[-61.521118,16.222221],[-61.53334,16.231667],[-61.54723,16.229532],[-61.563892,16.228111],[-61.567062,16.226944],[-61.568893,16.224277],[-61.581116,16.20472],[-61.58139,16.198608],[-61.580833,16.193054],[-61.576668,16.166111],[-61.575279,16.160831],[-61.567505,16.142498],[-61.555557,16.076111],[-61.55278,16.054443],[-61.559448,16.033886],[-61.5625,16.029442],[-61.572784,16.01833],[-61.606949,15.989721],[-61.648338,15.965277],[-61.685005,15.947777],[-61.690559,15.946388],[-61.695007,15.949165],[-61.736946,16.015831],[-61.75695,16.047775],[-61.761391,16.056664],[-61.793892,16.241943],[-61.796112,16.264164],[-61.793617,16.306942],[-61.783615,16.333054],[-61.759727,16.351109],[-61.74778,16.359722],[-61.7425,16.361111],[-61.730835,16.362221],[-61.726669,16.360275],[-61.655838,16.324718],[-61.609726,16.283886],[-61.610283,16.27861],[-61.606674,16.275276],[-61.581547,16.275103],[-61.557926,16.284374],[-61.556717,16.284899],[-61.54187,16.290249],[-61.498894,16.34861],[-61.522507,16.393055],[-61.529449,16.417774],[-61.532784,16.433331],[-61.53334,16.439163],[-61.53167,16.451942],[-61.526115,16.460831],[-61.50695,16.484997],[-61.470284,16.51083],[-61.466118,16.513611],[-61.460281,16.514164],[-61.456673,16.513054],[-61.436111,16.498886],[-61.407784,16.476665],[-61.404724,16.472775],[-61.402504,16.468052],[-61.393059,16.432777],[-61.391396,16.421944],[-61.399445,16.399719],[-61.400284,16.392776],[-61.398895,16.387775],[-61.39473,16.378887],[-61.373337,16.351387],[-61.366394,16.344166],[-61.35778,16.338055],[-61.346115,16.334164]]],[[[-62.811394,17.888332],[-62.835556,17.87833],[-62.841118,17.879166],[-62.845001,17.8825],[-62.870003,17.913055],[-62.872505,17.9175],[-62.873062,17.923332],[-62.869171,17.929722],[-62.863335,17.930275],[-62.811668,17.918053],[-62.79084,17.912498],[-62.789452,17.907497],[-62.79084,17.902775],[-62.811394,17.888332]]]]}},{"type":"Feature","properties":{"name":"Netherlands Antilles"},"geometry":{"type":"MultiPolygon","coordinates":[[[[-68.195282,12.221109],[-68.19278,12.210278],[-68.193069,12.204721],[-68.205566,12.113054],[-68.228897,12.039721],[-68.235565,12.025555],[-68.238892,12.022221],[-68.251114,12.020555],[-68.255844,12.022778],[-68.259171,12.02611],[-68.275284,12.051388],[-68.278625,12.061666],[-68.285278,12.102221],[-68.279175,12.139999],[-68.279175,12.146666],[-68.281403,12.157776],[-68.286667,12.173054],[-68.28862,12.177776],[-68.298615,12.195276],[-68.304733,12.203054],[-68.312225,12.209444],[-68.328064,12.215277],[-68.354736,12.217499],[-68.367508,12.216389],[-68.388336,12.216944],[-68.39418,12.218611],[-68.398895,12.220833],[-68.402237,12.224165],[-68.416946,12.250555],[-68.416122,12.256943],[-68.404449,12.292776],[-68.399445,12.301666],[-68.395004,12.304165],[-68.384171,12.307499],[-68.369736,12.306944],[-68.363892,12.305277],[-68.199448,12.224165],[-68.195282,12.221109]]],[[[-68.965561,12.198889],[-68.911957,12.181665],[-68.886124,12.183054],[-68.878891,12.182777],[-68.861679,12.178888],[-68.85112,12.175278],[-68.83667,12.16861],[-68.824173,12.160276],[-68.753067,12.064999],[-68.746948,12.040277],[-68.798889,12.040277],[-68.816956,12.043333],[-68.827515,12.047222],[-68.83223,12.049444],[-68.96167,12.112499],[-68.969727,12.118055],[-69.0625,12.188332],[-69.134445,12.273333],[-69.15834,12.311388],[-69.16362,12.366388],[-69.146393,12.383888],[-69.097778,12.363333],[-69.08139,12.351944],[-69.077789,12.34861],[-69.06723,12.331665],[-69.058334,12.313055],[-69.055557,12.288887],[-69.047791,12.269722],[-69.040283,12.256388],[-69.031403,12.244444],[-69.028061,12.24111],[-68.997223,12.21611],[-68.980835,12.204721],[-68.965561,12.198889]]],[[[-62.961113,17.460831],[-62.971947,17.458054],[-62.976669,17.460831],[-62.979446,17.464722],[-62.995285,17.489719],[-62.997505,17.494164],[-62.998062,17.514442],[-62.996674,17.520554],[-62.991112,17.521942],[-62.98584,17.519722],[-62.942505,17.49361],[-62.938614,17.490276],[-62.936394,17.485832],[-62.940285,17.474442],[-62.947784,17.467777],[-62.95195,17.464996],[-62.961113,17.460831]]]]}}],"source_url":"https://github.com/codeforgermany/click_that_hood/blob/main/public/data/caribbean-islands.geojson","license":"MIT","license_url":"https://github.com/codeforgermany/click_that_hood/blob/main/LICENSE"}